CCSDS_OMM_VERS = 2.0
CREATION_DATE  = 
ORIGINATOR     = 

OBJECT_NAME    = CORAL
OBJECT_ID      = 1998-067YA
CENTER_NAME    = EARTH
REF_FRAME      = TEME
TIME_SYSTEM    = UTC
MEAN_ELEMENT_THEORY = SGP/SGP4

EPOCH          = 2026-04-02T21:46:11.584992
MEAN_MOTION    = 15.58680214
ECCENTRICITY   = .00133737
INCLINATION    = 51.6289
RA_OF_ASC_NODE = 310.3752
ARG_OF_PERICENTER = 264.8409
MEAN_ANOMALY   = 95.1058

EPHEMERIS_TYPE = 0
CLASSIFICATION_TYPE = U
NORAD_CAT_ID   = 67684
ELEMENT_SET_NO = 999
REV_AT_EPOCH   = 856
BSTAR          = .18499922E-2
MEAN_MOTION_DOT = .147759E-2
MEAN_MOTION_DDOT = 0

CCSDS_OMM_VERS = 2.0
CREATION_DATE  = 
ORIGINATOR     = 

OBJECT_NAME    = GXIBA-1
OBJECT_ID      = 1998-067YB
CENTER_NAME    = EARTH
REF_FRAME      = TEME
TIME_SYSTEM    = UTC
MEAN_ELEMENT_THEORY = SGP/SGP4

EPOCH          = 2026-04-02T21:55:18.651648
MEAN_MOTION    = 15.54533464
ECCENTRICITY   = .0012346
INCLINATION    = 51.6305
RA_OF_ASC_NODE = 311.1681
ARG_OF_PERICENTER = 271.7020
MEAN_ANOMALY   = 88.2557

EPHEMERIS_TYPE = 0
CLASSIFICATION_TYPE = U
NORAD_CAT_ID   = 67685
ELEMENT_SET_NO = 999
REV_AT_EPOCH   = 855
BSTAR          = .10741009E-2
MEAN_MOTION_DOT = .7256E-3
MEAN_MOTION_DDOT = 0

CCSDS_OMM_VERS = 2.0
CREATION_DATE  = 
ORIGINATOR     = 

OBJECT_NAME    = UITMSAT-2
OBJECT_ID      = 1998-067YC
CENTER_NAME    = EARTH
REF_FRAME      = TEME
TIME_SYSTEM    = UTC
MEAN_ELEMENT_THEORY = SGP/SGP4

EPOCH          = 2026-04-02T15:19:28.045056
MEAN_MOTION    = 15.55557558
ECCENTRICITY   = .00093777
INCLINATION    = 51.6305
RA_OF_ASC_NODE = 312.3353
ARG_OF_PERICENTER = 244.7057
MEAN_ANOMALY   = 115.2963

EPHEMERIS_TYPE = 0
CLASSIFICATION_TYPE = U
NORAD_CAT_ID   = 67686
ELEMENT_SET_NO = 999
REV_AT_EPOCH   = 851
BSTAR          = .99291359E-3
MEAN_MOTION_DOT = .69503E-3
MEAN_MOTION_DDOT = 0

CCSDS_OMM_VERS = 2.0
CREATION_DATE  = 
ORIGINATOR     = 

OBJECT_NAME    = HMU-SAT2
OBJECT_ID      = 1998-067YD
CENTER_NAME    = EARTH
REF_FRAME      = TEME
TIME_SYSTEM    = UTC
MEAN_ELEMENT_THEORY = SGP/SGP4

EPOCH          = 2026-04-02T22:03:37.580544
MEAN_MOTION    = 15.54267047
ECCENTRICITY   = .00088786
INCLINATION    = 51.6311
RA_OF_ASC_NODE = 311.2095
ARG_OF_PERICENTER = 248.0698
MEAN_ANOMALY   = 111.9350

EPHEMERIS_TYPE = 0
CLASSIFICATION_TYPE = U
NORAD_CAT_ID   = 67687
ELEMENT_SET_NO = 999
REV_AT_EPOCH   = 847
BSTAR          = .10897704E-2
MEAN_MOTION_DOT = .72798E-3
MEAN_MOTION_DDOT = 0

CCSDS_OMM_VERS = 2.0
CREATION_DATE  = 
ORIGINATOR     = 

OBJECT_NAME    = LEOPARD
OBJECT_ID      = 1998-067YE
CENTER_NAME    = EARTH
REF_FRAME      = TEME
TIME_SYSTEM    = UTC
MEAN_ELEMENT_THEORY = SGP/SGP4

EPOCH          = 2026-04-02T21:41:15.919872
MEAN_MOTION    = 15.55123326
ECCENTRICITY   = .00091473
INCLINATION    = 51.6305
RA_OF_ASC_NODE = 311.1061
ARG_OF_PERICENTER = 245.5270
MEAN_ANOMALY   = 114.4767

EPHEMERIS_TYPE = 0
CLASSIFICATION_TYPE = U
NORAD_CAT_ID   = 67688
ELEMENT_SET_NO = 999
REV_AT_EPOCH   = 847
BSTAR          = .12145209E-2
MEAN_MOTION_DOT = .83912E-3
MEAN_MOTION_DDOT = 0

CCSDS_OMM_VERS = 2.0
CREATION_DATE  = 
ORIGINATOR     = 

OBJECT_NAME    = CREW DRAGON 12
OBJECT_ID      = 2026-031A
CENTER_NAME    = EARTH
REF_FRAME      = TEME
TIME_SYSTEM    = UTC
MEAN_ELEMENT_THEORY = SGP/SGP4

EPOCH          = 2026-04-02T20:14:17.914560
MEAN_MOTION    = 15.48729122
ECCENTRICITY   = .00062358
INCLINATION    = 51.6328
RA_OF_ASC_NODE = 312.9475
ARG_OF_PERICENTER = 264.7845
MEAN_ANOMALY   = 95.2432

EPHEMERIS_TYPE = 0
CLASSIFICATION_TYPE = U
NORAD_CAT_ID   = 67796
ELEMENT_SET_NO = 999
REV_AT_EPOCH   = 56004
BSTAR          = .22446991E-3
MEAN_MOTION_DOT = .11825E-3
MEAN_MOTION_DDOT = 0

CCSDS_OMM_VERS = 2.0
CREATION_DATE  = 
ORIGINATOR     = 

OBJECT_NAME    = PROGRESS-MS 33
OBJECT_ID      = 2026-058A
CENTER_NAME    = EARTH
REF_FRAME      = TEME
TIME_SYSTEM    = UTC
MEAN_ELEMENT_THEORY = SGP/SGP4

EPOCH          = 2026-04-02T20:14:17.914560
MEAN_MOTION    = 15.48729122
ECCENTRICITY   = .00062358
INCLINATION    = 51.6328
RA_OF_ASC_NODE = 312.9475
ARG_OF_PERICENTER = 264.7845
MEAN_ANOMALY   = 95.2432

EPHEMERIS_TYPE = 0
CLASSIFICATION_TYPE = U
NORAD_CAT_ID   = 68319
ELEMENT_SET_NO = 999
REV_AT_EPOCH   = 125
BSTAR          = .22446991E-3
MEAN_MOTION_DOT = .11825E-3
MEAN_MOTION_DDOT = 0

