CORAL                   
1 67684U 98067YA  26092.90707853  .00147759  00000+0  18500-2 0  9997
2 67684  51.6289 310.3752 0013373 264.8409  95.1058 15.58680214  8562
GXIBA-1                 
1 67685U 98067YB  26092.91341032  .00072560  00000+0  10741-2 0  9998
2 67685  51.6305 311.1681 0012346 271.7020  88.2557 15.54533464  8553
UITMSAT-2               
1 67686U 98067YC  26092.63851904  .00069503  00000+0  99291-3 0  9993
2 67686  51.6305 312.3353 0009377 244.7057 115.2963 15.55557558  8512
HMU-SAT2                
1 67687U 98067YD  26092.91918496  .00072798  00000+0  10898-2 0  9990
2 67687  51.6311 311.2095 0008878 248.0698 111.9350 15.54267047  8472
LEOPARD                 
1 67688U 98067YE  26092.90365648  .00083912  00000+0  12145-2 0  9992
2 67688  51.6305 311.1061 0009147 245.5270 114.4767 15.55123326  8478
CREW DRAGON 12          
1 67796U 26031A   26092.84326290  .00011825  00000+0  22447-3 0  9998
2 67796  51.6328 312.9475 0006235 264.7845  95.2432 15.48729122560046
PROGRESS-MS 33          
1 68319U 26058A   26092.84326290  .00011825  00000+0  22447-3 0  9999
2 68319  51.6328 312.9475 0006235 264.7845  95.2432 15.48729122  1251
